CCSDS_OMM_VERS = 2.0
CREATION_DATE  = 
ORIGINATOR     = 

OBJECT_NAME    = STARLINK-35336
OBJECT_ID      = 2025-232B
CENTER_NAME    = EARTH
REF_FRAME      = TEME
TIME_SYSTEM    = UTC
MEAN_ELEMENT_THEORY = SGP/SGP4

EPOCH          = 2025-10-27T04:00:01.998720
MEAN_MOTION    = 15.82351047
ECCENTRICITY   = .0000888
INCLINATION    = 53.1551
RA_OF_ASC_NODE = 8.9625
ARG_OF_PERICENTER = 79.6513
MEAN_ANOMALY   = 320.0288

EPHEMERIS_TYPE = 0
CLASSIFICATION_TYPE = U
NORAD_CAT_ID   = 66006
ELEMENT_SET_NO = 999
REV_AT_EPOCH   = 207
BSTAR          = -.7895E-2
MEAN_MOTION_DOT = -.1476688E-1
MEAN_MOTION_DDOT = 0

CCSDS_OMM_VERS = 2.0
CREATION_DATE  = 
ORIGINATOR     = 

OBJECT_NAME    = STARLINK-35196
OBJECT_ID      = 2025-232C
CENTER_NAME    = EARTH
REF_FRAME      = TEME
TIME_SYSTEM    = UTC
MEAN_ELEMENT_THEORY = SGP/SGP4

EPOCH          = 2025-10-27T04:00:01.998720
MEAN_MOTION    = 15.82352730
ECCENTRICITY   = .000095
INCLINATION    = 53.1554
RA_OF_ASC_NODE = 8.9583
ARG_OF_PERICENTER = 81.3525
MEAN_ANOMALY   = 320.4479

EPHEMERIS_TYPE = 0
CLASSIFICATION_TYPE = U
NORAD_CAT_ID   = 66007
ELEMENT_SET_NO = 999
REV_AT_EPOCH   = 207
BSTAR          = -.79536E-2
MEAN_MOTION_DOT = -.1486503E-1
MEAN_MOTION_DDOT = 0

CCSDS_OMM_VERS = 2.0
CREATION_DATE  = 
ORIGINATOR     = 

OBJECT_NAME    = STARLINK-35236
OBJECT_ID      = 2025-232D
CENTER_NAME    = EARTH
REF_FRAME      = TEME
TIME_SYSTEM    = UTC
MEAN_ELEMENT_THEORY = SGP/SGP4

EPOCH          = 2025-10-27T04:00:01.998720
MEAN_MOTION    = 15.82324808
ECCENTRICITY   = .0000801
INCLINATION    = 53.1547
RA_OF_ASC_NODE = 8.9525
ARG_OF_PERICENTER = 85.6620
MEAN_ANOMALY   = 318.5354

EPHEMERIS_TYPE = 0
CLASSIFICATION_TYPE = U
NORAD_CAT_ID   = 66008
ELEMENT_SET_NO = 999
REV_AT_EPOCH   = 207
BSTAR          = -.79771E-2
MEAN_MOTION_DOT = -.1488556E-1
MEAN_MOTION_DDOT = 0

CCSDS_OMM_VERS = 2.0
CREATION_DATE  = 
ORIGINATOR     = 

OBJECT_NAME    = STARLINK-35276
OBJECT_ID      = 2025-232E
CENTER_NAME    = EARTH
REF_FRAME      = TEME
TIME_SYSTEM    = UTC
MEAN_ELEMENT_THEORY = SGP/SGP4

EPOCH          = 2025-10-27T04:00:01.998720
MEAN_MOTION    = 15.82287783
ECCENTRICITY   = .0000701
INCLINATION    = 53.1548
RA_OF_ASC_NODE = 8.9475
ARG_OF_PERICENTER = 98.8969
MEAN_ANOMALY   = 307.8677

EPHEMERIS_TYPE = 0
CLASSIFICATION_TYPE = U
NORAD_CAT_ID   = 66009
ELEMENT_SET_NO = 999
REV_AT_EPOCH   = 206
BSTAR          = -.80485E-2
MEAN_MOTION_DOT = -.1497918E-1
MEAN_MOTION_DDOT = 0

CCSDS_OMM_VERS = 2.0
CREATION_DATE  = 
ORIGINATOR     = 

OBJECT_NAME    = STARLINK-35297
OBJECT_ID      = 2025-232F
CENTER_NAME    = EARTH
REF_FRAME      = TEME
TIME_SYSTEM    = UTC
MEAN_ELEMENT_THEORY = SGP/SGP4

EPOCH          = 2025-10-27T04:00:01.998720
MEAN_MOTION    = 15.82283682
ECCENTRICITY   = .0000815
INCLINATION    = 53.1550
RA_OF_ASC_NODE = 8.9428
ARG_OF_PERICENTER = 81.6296
MEAN_ANOMALY   = 327.3583

EPHEMERIS_TYPE = 0
CLASSIFICATION_TYPE = U
NORAD_CAT_ID   = 66010
ELEMENT_SET_NO = 999
REV_AT_EPOCH   = 207
BSTAR          = -.81468E-2
MEAN_MOTION_DOT = -.1513832E-1
MEAN_MOTION_DDOT = 0

CCSDS_OMM_VERS = 2.0
CREATION_DATE  = 
ORIGINATOR     = 

OBJECT_NAME    = STARLINK-35256
OBJECT_ID      = 2025-232G
CENTER_NAME    = EARTH
REF_FRAME      = TEME
TIME_SYSTEM    = UTC
MEAN_ELEMENT_THEORY = SGP/SGP4

EPOCH          = 2025-10-27T04:00:01.998720
MEAN_MOTION    = 15.82234971
ECCENTRICITY   = .0001058
INCLINATION    = 53.1551
RA_OF_ASC_NODE = 8.9244
ARG_OF_PERICENTER = 65.3912
MEAN_ANOMALY   = 352.5636

EPHEMERIS_TYPE = 0
CLASSIFICATION_TYPE = U
NORAD_CAT_ID   = 66011
ELEMENT_SET_NO = 999
REV_AT_EPOCH   = 207
BSTAR          = -.83365E-2
MEAN_MOTION_DOT = -.1541807E-1
MEAN_MOTION_DDOT = 0

CCSDS_OMM_VERS = 2.0
CREATION_DATE  = 
ORIGINATOR     = 

OBJECT_NAME    = STARLINK-35293
OBJECT_ID      = 2025-232H
CENTER_NAME    = EARTH
REF_FRAME      = TEME
TIME_SYSTEM    = UTC
MEAN_ELEMENT_THEORY = SGP/SGP4

EPOCH          = 2025-10-27T04:00:01.998720
MEAN_MOTION    = 15.82266085
ECCENTRICITY   = .000079
INCLINATION    = 53.1548
RA_OF_ASC_NODE = 8.9379
ARG_OF_PERICENTER = 84.1241
MEAN_ANOMALY   = 327.2128

EPHEMERIS_TYPE = 0
CLASSIFICATION_TYPE = U
NORAD_CAT_ID   = 66012
ELEMENT_SET_NO = 999
REV_AT_EPOCH   = 207
BSTAR          = -.82213E-2
MEAN_MOTION_DOT = -.1524863E-1
MEAN_MOTION_DDOT = 0

CCSDS_OMM_VERS = 2.0
CREATION_DATE  = 
ORIGINATOR     = 

OBJECT_NAME    = STARLINK-35307
OBJECT_ID      = 2025-232J
CENTER_NAME    = EARTH
REF_FRAME      = TEME
TIME_SYSTEM    = UTC
MEAN_ELEMENT_THEORY = SGP/SGP4

EPOCH          = 2025-10-27T04:00:01.998720
MEAN_MOTION    = 15.82251692
ECCENTRICITY   = .0001001
INCLINATION    = 53.1551
RA_OF_ASC_NODE = 8.9333
ARG_OF_PERICENTER = 68.6417
MEAN_ANOMALY   = 344.9680

EPHEMERIS_TYPE = 0
CLASSIFICATION_TYPE = U
NORAD_CAT_ID   = 66013
ELEMENT_SET_NO = 999
REV_AT_EPOCH   = 200
BSTAR          = -.82829E-2
MEAN_MOTION_DOT = -.1534132E-1
MEAN_MOTION_DDOT = 0

CCSDS_OMM_VERS = 2.0
CREATION_DATE  = 
ORIGINATOR     = 

OBJECT_NAME    = STARLINK-35395
OBJECT_ID      = 2025-232K
CENTER_NAME    = EARTH
REF_FRAME      = TEME
TIME_SYSTEM    = UTC
MEAN_ELEMENT_THEORY = SGP/SGP4

EPOCH          = 2025-10-27T04:00:01.998720
MEAN_MOTION    = 15.82256170
ECCENTRICITY   = .0000772
INCLINATION    = 53.1548
RA_OF_ASC_NODE = 8.9288
ARG_OF_PERICENTER = 83.9474
MEAN_ANOMALY   = 331.6743

EPHEMERIS_TYPE = 0
CLASSIFICATION_TYPE = U
NORAD_CAT_ID   = 66014
ELEMENT_SET_NO = 999
REV_AT_EPOCH   = 206
BSTAR          = -.82912E-2
MEAN_MOTION_DOT = -.1535591E-1
MEAN_MOTION_DDOT = 0

CCSDS_OMM_VERS = 2.0
CREATION_DATE  = 
ORIGINATOR     = 

OBJECT_NAME    = STARLINK-34622
OBJECT_ID      = 2025-232L
CENTER_NAME    = EARTH
REF_FRAME      = TEME
TIME_SYSTEM    = UTC
MEAN_ELEMENT_THEORY = SGP/SGP4

EPOCH          = 2025-10-27T04:00:01.998720
MEAN_MOTION    = 15.82172212
ECCENTRICITY   = .0000966
INCLINATION    = 53.1550
RA_OF_ASC_NODE = 8.9094
ARG_OF_PERICENTER = 83.2976
MEAN_ANOMALY   = 341.7171

EPHEMERIS_TYPE = 0
CLASSIFICATION_TYPE = U
NORAD_CAT_ID   = 66015
ELEMENT_SET_NO = 999
REV_AT_EPOCH   = 196
BSTAR          = -.85306E-2
MEAN_MOTION_DOT = -.1569049E-1
MEAN_MOTION_DDOT = 0

CCSDS_OMM_VERS = 2.0
CREATION_DATE  = 
ORIGINATOR     = 

OBJECT_NAME    = STARLINK-35243
OBJECT_ID      = 2025-232M
CENTER_NAME    = EARTH
REF_FRAME      = TEME
TIME_SYSTEM    = UTC
MEAN_ELEMENT_THEORY = SGP/SGP4

EPOCH          = 2025-10-27T04:00:01.998720
MEAN_MOTION    = 15.82200705
ECCENTRICITY   = .0000923
INCLINATION    = 53.1548
RA_OF_ASC_NODE = 8.9143
ARG_OF_PERICENTER = 73.8910
MEAN_ANOMALY   = 348.7094

EPHEMERIS_TYPE = 0
CLASSIFICATION_TYPE = U
NORAD_CAT_ID   = 66016
ELEMENT_SET_NO = 999
REV_AT_EPOCH   = 207
BSTAR          = -.84764E-2
MEAN_MOTION_DOT = -.1562141E-1
MEAN_MOTION_DDOT = 0

CCSDS_OMM_VERS = 2.0
CREATION_DATE  = 
ORIGINATOR     = 

OBJECT_NAME    = STARLINK-35398
OBJECT_ID      = 2025-232N
CENTER_NAME    = EARTH
REF_FRAME      = TEME
TIME_SYSTEM    = UTC
MEAN_ELEMENT_THEORY = SGP/SGP4

EPOCH          = 2025-10-27T04:00:01.998720
MEAN_MOTION    = 15.82132619
ECCENTRICITY   = .000077
INCLINATION    = 53.1550
RA_OF_ASC_NODE = 8.8995
ARG_OF_PERICENTER = 85.7811
MEAN_ANOMALY   = 343.9307

EPHEMERIS_TYPE = 0
CLASSIFICATION_TYPE = U
NORAD_CAT_ID   = 66017
ELEMENT_SET_NO = 999
REV_AT_EPOCH   = 199
BSTAR          = -.86712E-2
MEAN_MOTION_DOT = -.1588875E-1
MEAN_MOTION_DDOT = 0

