STARLINK-35336          
1 66006U 25232B   25300.16668980 -.01476688  00000+0 -78950-2 0  9998
2 66006  53.1551   8.9625 0000888  79.6513 320.0288 15.82351047  2073
STARLINK-35196          
1 66007U 25232C   25300.16668980 -.01486503  00000+0 -79536-2 0  9997
2 66007  53.1554   8.9583 0000950  81.3525 320.4479 15.82352730  2079
STARLINK-35236          
1 66008U 25232D   25300.16668980 -.01488556  00000+0 -79771-2 0  9999
2 66008  53.1547   8.9525 0000801  85.6620 318.5354 15.82324808  2071
STARLINK-35276          
1 66009U 25232E   25300.16668980 -.01497918  00000+0 -80485-2 0  9996
2 66009  53.1548   8.9475 0000701  98.8969 307.8677 15.82287783  2066
STARLINK-35297          
1 66010U 25232F   25300.16668980 -.01513832  00000+0 -81468-2 0  9994
2 66010  53.1550   8.9428 0000815  81.6296 327.3583 15.82283682  2076
STARLINK-35256          
1 66011U 25232G   25300.16668980 -.01541807  00000+0 -83365-2 0  9996
2 66011  53.1551   8.9244 0001058  65.3912 352.5636 15.82234971  2074
STARLINK-35293          
1 66012U 25232H   25300.16668980 -.01524863  00000+0 -82213-2 0  9991
2 66012  53.1548   8.9379 0000790  84.1241 327.2128 15.82266085  2072
STARLINK-35307          
1 66013U 25232J   25300.16668980 -.01534132  00000+0 -82829-2 0  9995
2 66013  53.1551   8.9333 0001001  68.6417 344.9680 15.82251692  2005
STARLINK-35395          
1 66014U 25232K   25300.16668980 -.01535591  00000+0 -82912-2 0  9999
2 66014  53.1548   8.9288 0000772  83.9474 331.6743 15.82256170  2063
STARLINK-34622          
1 66015U 25232L   25300.16668980 -.01569049  00000+0 -85306-2 0  9995
2 66015  53.1550   8.9094 0000966  83.2976 341.7171 15.82172212  1966
STARLINK-35243          
1 66016U 25232M   25300.16668980 -.01562141  00000+0 -84764-2 0  9999
2 66016  53.1548   8.9143 0000923  73.8910 348.7094 15.82200705  2078
STARLINK-35398          
1 66017U 25232N   25300.16668980 -.01588875  00000+0 -86712-2 0  9997
2 66017  53.1550   8.8995 0000770  85.7811 343.9307 15.82132619  1990
